{"type": "FeatureCollection", "features": [ {"type": "Feature", "properties": {"norad_id": 32289, "name": "YAOGAN-3", "group": "resource", "lat": 52.38471237570743, "lon": 13.93778680285807, "alt_km": 592.6245573025635, "timestamp": "2025-12-23T16:57:12.001623+00:00", "meta": {"OBJECT_NAME": "YAOGAN-3", "OBJECT_ID": "2007-055A", "EPOCH": "2025-12-23T07:02:41.753184", "MEAN_MOTION": 14.89907467, "ECCENTRICITY": 0.00011932, "INCLINATION": 97.8348, "RA_OF_ASC_NODE": 23.8229, "ARG_OF_PERICENTER": 84.4761, "MEAN_ANOMALY": 275.6593, "EPHEMERIS_TYPE": 0, "CLASSIFICATION_TYPE": "U", "NORAD_CAT_ID": 32289, "ELEMENT_SET_NO": 999, "REV_AT_EPOCH": 97966, "BSTAR": 0.00048392308, "MEAN_MOTION_DOT": 4.601e-05, "MEAN_MOTION_DDOT": 0}, "tle": {"line1": "1 32289U 07055A   25357.29353881  .00004601  00000+0  48392-3 0  9991", "line2": "2 32289  97.8348  23.8229 0001193  84.4761 275.6593 14.89907467979664"}}, "geometry": {"type": "Point", "coordinates": [13.93778680285807, 52.38471237570743]}}, {"type": "Feature", "properties": {"norad_id": 32376, "name": "COSMO-SKYMED 2", "group": "resource", "lat": 27.09271982126467, "lon": 174.8016985485225, "alt_km": 620.9528959299187, "timestamp": "2025-12-23T16:57:12.001634+00:00", "meta": {"OBJECT_NAME": "COSMO-SKYMED 2", "OBJECT_ID": "2007-059A", "EPOCH": "2025-12-23T07:06:31.381056", "MEAN_MOTION": 14.82154959, "ECCENTRICITY": 0.00013148, "INCLINATION": 97.8805, "RA_OF_ASC_NODE": 178.461, "ARG_OF_PERICENTER": 82.6947, "MEAN_ANOMALY": 277.4415, "EPHEMERIS_TYPE": 0, "CLASSIFICATION_TYPE": "U", "NORAD_CAT_ID": 32376, "ELEMENT_SET_NO": 999, "REV_AT_EPOCH": 97594, "BSTAR": 7.159144e-05, "MEAN_MOTION_DOT": 5.18e-06, "MEAN_MOTION_DDOT": 0}, "tle": {"line1": "1 32376U 07059A   25357.29619654  .00000518  00000+0  71591-4 0  9996", "line2": "2 32376  97.8805 178.4610 0001314  82.6947 277.4415 14.82154959975944"}}, "geometry": {"type": "Point", "coordinates": [174.8016985485225, 27.09271982126467]}}, {"type": "Feature", "properties": {"norad_id": 32382, "name": "RADARSAT-2", "group": "resource", "lat": 77.01742454651746, "lon": -38.76666268633794, "alt_km": 783.6975048270197, "timestamp": "2025-12-23T16:57:12.001644+00:00", "meta": {"OBJECT_NAME": "RADARSAT-2", "OBJECT_ID": "2007-061A", "EPOCH": "2025-12-23T06:30:13.872960", "MEAN_MOTION": 14.29985581, "ECCENTRICITY": 0.00011325, "INCLINATION": 98.5791, "RA_OF_ASC_NODE": 1.7078, "ARG_OF_PERICENTER": 84.5857, "MEAN_ANOMALY": 275.5455, "EPHEMERIS_TYPE": 0, "CLASSIFICATION_TYPE": "U", "NORAD_CAT_ID": 32382, "ELEMENT_SET_NO": 999, "REV_AT_EPOCH": 94081, "BSTAR": 0.00016597604, "MEAN_MOTION_DOT": 3.84e-06, "MEAN_MOTION_DDOT": 0}, "tle": {"line1": "1 32382U 07061A   25357.27099390  .00000384  00000+0  16598-3 0  9999", "line2": "2 32382  98.5791   1.7078 0001132  84.5857 275.5455 14.29985581940813"}}, "geometry": {"type": "Point", "coordinates": [-38.76666268633794, 77.01742454651746]}}, {"type": "Feature", "properties": {"norad_id": 32783, "name": "CARTOSAT-2A", "group": "resource", "lat": 40.24149798279279, "lon": 40.53173026321396, "alt_km": 627.2328259751703, "timestamp": "2025-12-23T16:57:12.001655+00:00", "meta": {"OBJECT_NAME": "CARTOSAT-2A", "OBJECT_ID": "2008-021A", "EPOCH": "2025-12-23T13:31:21.583200", "MEAN_MOTION": 14.78951894, "ECCENTRICITY": 0.0011057, "INCLINATION": 97.7918, "RA_OF_ASC_NODE": 47.0479, "ARG_OF_PERICENTER": 328.3066, "MEAN_ANOMALY": 31.7479, "EPHEMERIS_TYPE": 0, "CLASSIFICATION_TYPE": "U", "NORAD_CAT_ID": 32783, "ELEMENT_SET_NO": 999, "REV_AT_EPOCH": 95284, "BSTAR": 0.00011216, "MEAN_MOTION_DOT": 7.78e-06, "MEAN_MOTION_DDOT": 0}, "tle": {"line1": "1 32783U 08021A   25357.56344425  .00000778  00000+0  11216-3 0  9994", "line2": "2 32783  97.7918  47.0479 0011057 328.3066  31.7479 14.78951894952844"}}, "geometry": {"type": "Point", "coordinates": [40.53173026321396, 40.24149798279279]}}, {"type": "Feature", "properties": {"norad_id": 33320, "name": "HUANJING 1A (HJ-1A)", "group": "resource", "lat": 79.07404221756771, "lon": -58.61291031868417, "alt_km": 609.3904962678789, "timestamp": "2025-12-23T16:57:12.001665+00:00", "meta": {"OBJECT_NAME": "HUANJING 1A (HJ-1A)", "OBJECT_ID": "2008-041A", "EPOCH": "2025-12-23T06:52:19.299072", "MEAN_MOTION": 14.83426962, "ECCENTRICITY": 0.00193784, "INCLINATION": 97.6543, "RA_OF_ASC_NODE": 345.1446, "ARG_OF_PERICENTER": 1.0541, "MEAN_ANOMALY": 359.0711, "EPHEMERIS_TYPE": 0, "CLASSIFICATION_TYPE": "U", "NORAD_CAT_ID": 33320, "ELEMENT_SET_NO": 999, "REV_AT_EPOCH": 93232, "BSTAR": 0.00022618692, "MEAN_MOTION_DOT": 1.812e-05, "MEAN_MOTION_DDOT": 0}, "tle": {"line1": "1 33320U 08041A   25357.28633448  .00001812  00000+0  22619-3 0  9998", "line2": "2 33320  97.6543 345.1446 0019378   1.0541 359.0711 14.83426962932323"}}, "geometry": {"type": "Point", "coordinates": [-58.61291031868417, 79.07404221756771]}}, {"type": "Feature", "properties": {"norad_id": 33321, "name": "HUANJING 1B (HJ-1B)", "group": "resource", "lat": -77.47296252173824, "lon": 26.380857804292344, "alt_km": 641.2508087877777, "timestamp": "2025-12-23T16:57:12.001676+00:00", "meta": {"OBJECT_NAME": "HUANJING 1B (HJ-1B)", "OBJECT_ID": "2008-041B", "EPOCH": "2025-12-23T05:58:37.133760", "MEAN_MOTION": 14.82846017, "ECCENTRICITY": 0.00378657, "INCLINATION": 97.64, "RA_OF_ASC_NODE": 348.7781, "ARG_OF_PERICENTER": 42.4143, "MEAN_ANOMALY": 317.9987, "EPHEMERIS_TYPE": 0, "CLASSIFICATION_TYPE": "U", "NORAD_CAT_ID": 33321, "ELEMENT_SET_NO": 999, "REV_AT_EPOCH": 93233, "BSTAR": 0.00012646339, "MEAN_MOTION_DOT": 9.85e-06, "MEAN_MOTION_DDOT": 0}, "tle": {"line1": "1 33321U 08041B   25357.24904090  .00000985  00000+0  12646-3 0  9998", "line2": "2 33321  97.6400 348.7781 0037865  42.4143 317.9987 14.82846017932330"}}, "geometry": {"type": "Point", "coordinates": [26.380857804292344, -77.47296252173824]}}, {"type": "Feature", "properties": {"norad_id": 33331, "name": "GEOEYE 1", "group": "resource", "lat": -81.25123254436873, "lon": 137.00250551862274, "alt_km": 683.6675541419218, "timestamp": "2025-12-23T16:57:12.001693+00:00", "meta": {"OBJECT_NAME": "GEOEYE 1", "OBJECT_ID": "2008-042A", "EPOCH": "2025-12-23T04:13:57.785664", "MEAN_MOTION": 14.64713746, "ECCENTRICITY": 0.00029135, "INCLINATION": 98.1239, "RA_OF_ASC_NODE": 68.3251, "ARG_OF_PERICENTER": 239.3644, "MEAN_ANOMALY": 120.7272, "EPHEMERIS_TYPE": 0, "CLASSIFICATION_TYPE": "U", "NORAD_CAT_ID": 33331, "ELEMENT_SET_NO": 999, "REV_AT_EPOCH": 92438, "BSTAR": 0.00011627381, "MEAN_MOTION_DOT": 5.71e-06, "MEAN_MOTION_DDOT": 0}, "tle": {"line1": "1 33331U 08042A   25357.17636326  .00000571  00000+0  11627-3 0  9995", "line2": "2 33331  98.1239  68.3251 0002913 239.3644 120.7272 14.64713746924388"}}, "geometry": {"type": "Point", "coordinates": [137.00250551862274, -81.25123254436873]}}, {"type": "Feature", "properties": {"norad_id": 33396, "name": "THEOS", "group": "resource", "lat": 9.050007747285672, "lon": -123.14924808615896, "alt_km": 826.5120741488181, "timestamp": "2025-12-23T16:57:12.001704+00:00", "meta": {"OBJECT_NAME": "THEOS", "OBJECT_ID": "2008-049A", "EPOCH": "2025-12-23T07:41:49.764768", "MEAN_MOTION": 14.20098022, "ECCENTRICITY": 0.00012271, "INCLINATION": 98.5851, "RA_OF_ASC_NODE": 55.0978, "ARG_OF_PERICENTER": 93.2912, "MEAN_ANOMALY": 266.8405, "EPHEMERIS_TYPE": 0, "CLASSIFICATION_TYPE": "U", "NORAD_CAT_ID": 33396, "ELEMENT_SET_NO": 999, "REV_AT_EPOCH": 89300, "BSTAR": -1.406822e-06, "MEAN_MOTION_DOT": -4.6e-07, "MEAN_MOTION_DDOT": 0}, "tle": {"line1": "1 33396U 08049A   25357.32071487 -.00000046  00000+0 -14068-5 0  9994", "line2": "2 33396  98.5851  55.0978 0001227  93.2912 266.8405 14.20098022893003"}}, "geometry": {"type": "Point", "coordinates": [-123.14924808615896, 9.050007747285672]}}, {"type": "Feature", "properties": {"norad_id": 33412, "name": "COSMO-SKYMED 3", "group": "resource", "lat": 20.160516391574706, "lon": -154.61856183941518, "alt_km": 555.2754721419005, "timestamp": "2025-12-23T16:57:12.001715+00:00", "meta": {"OBJECT_NAME": "COSMO-SKYMED 3", "OBJECT_ID": "2008-054A", "EPOCH": "2025-12-23T05:41:47.418432", "MEAN_MOTION": 15.05441687, "ECCENTRICITY": 0.00170766, "INCLINATION": 97.8455, "RA_OF_ASC_NODE": 207.8065, "ARG_OF_PERICENTER": 137.312, "MEAN_ANOMALY": 222.9436, "EPHEMERIS_TYPE": 0, "CLASSIFICATION_TYPE": "U", "NORAD_CAT_ID": 33412, "ELEMENT_SET_NO": 999, "REV_AT_EPOCH": 93045, "BSTAR": 0.00023784714, "MEAN_MOTION_DOT": 3.36e-05, "MEAN_MOTION_DDOT": 0}, "tle": {"line1": "1 33412U 08054A   25357.23735438  .00003360  00000+0  23785-3 0  9996", "line2": "2 33412  97.8455 207.8065 0017076 137.3120 222.9436 15.05441687930459"}}, "geometry": {"type": "Point", "coordinates": [-154.61856183941518, 20.160516391574706]}}, {"type": "Feature", "properties": {"norad_id": 33446, "name": "YAOGAN-4", "group": "resource", "lat": -6.744909342367486, "lon": 106.75541122673219, "alt_km": 625.8954215089989, "timestamp": "2025-12-23T16:57:12.001725+00:00", "meta": {"OBJECT_NAME": "YAOGAN-4", "OBJECT_ID": "2008-061A", "EPOCH": "2025-12-23T01:32:09.119616", "MEAN_MOTION": 14.8271129, "ECCENTRICITY": 0.00130344, "INCLINATION": 97.9196, "RA_OF_ASC_NODE": 287.0626, "ARG_OF_PERICENTER": 286.8037, "MEAN_ANOMALY": 73.1747, "EPHEMERIS_TYPE": 0, "CLASSIFICATION_TYPE": "U", "NORAD_CAT_ID": 33446, "ELEMENT_SET_NO": 999, "REV_AT_EPOCH": 91956, "BSTAR": 0.0001704414, "MEAN_MOTION_DOT": 1.323e-05, "MEAN_MOTION_DDOT": 0}, "tle": {"line1": "1 33446U 08061A   25357.06399444  .00001323  00000+0  17044-3 0  9993", "line2": "2 33446  97.9196 287.0626 0013034 286.8037  73.1747 14.82711290919563"}}, "geometry": {"type": "Point", "coordinates": [106.75541122673219, -6.744909342367486]}}]}